{
  "norad_id": "51281",
  "name": "USA 325",
  "line1": "1 51281U 22006B   26006.70962434 -.00000360  00000+0  00000+0 0  9994",
  "line2": "2 51281   0.1656  83.9928 0022746 181.1199 218.2610  1.00266333 14512",
  "fetched_at": "2026-06-22T01:52:55.652066+00:00"
}